{
  "type": "FeatureCollection",
  "features": [
    {
      "type": "Feature",
      "properties": {
        "norad_id": 2807,
        "name": "OPS 7218 (TRANSIT 16)",
        "group": "nnss",
        "lat": 14.805157652321048,
        "lon": -5.789145500846031,
        "alt_km": 1075.3886858275673,
        "timestamp": "2025-12-09T11:33:55.068165+00:00",
        "meta_object_name": "OPS 7218 (TRANSIT 16)",
        "meta_object_id": "1967-048A",
        "meta_epoch": "2025-12-09T01:05:23.708256",
        "meta_mean_motion": 13.5072118,
        "meta_eccentricity": 0.0021798,
        "meta_inclination": 89.6731,
        "meta_ra_of_asc_node": 354.1388,
        "meta_arg_of_pericenter": 123.9796,
        "meta_mean_anomaly": 290.0379,
        "meta_ephemeris_type": 0,
        "meta_classification_type": "U",
        "meta_norad_cat_id": 2807,
        "meta_element_set_no": 999,
        "meta_rev_at_epoch": 88226,
        "meta_bstar": 0.00020521,
        "meta_mean_motion_dot": 1.43e-06,
        "meta_mean_motion_ddot": 0,
        "tle_line1": "1 02807U 67048A   25343.04541329  .00000143  00000+0  20521-3 0  9997",
        "tle_line2": "2 02807  89.6731 354.1388 0021798 123.9796 290.0379 13.50721180882263"
      },
      "geometry": {
        "type": "Point",
        "coordinates": [
          -5.789145500846031,
          14.805157652321048
        ]
      }
    },
    {
      "type": "Feature",
      "properties": {
        "norad_id": 2965,
        "name": "OPS 4947 (TRANSIT 17)",
        "group": "nnss",
        "lat": 47.71957064341738,
        "lon": 25.509733304727725,
        "alt_km": 1088.1765622588691,
        "timestamp": "2025-12-09T11:33:55.068187+00:00",
        "meta_object_name": "OPS 4947 (TRANSIT 17)",
        "meta_object_id": "1967-092A",
        "meta_epoch": "2025-12-09T04:32:40.270272",
        "meta_mean_motion": 13.53452129,
        "meta_eccentricity": 0.0045987,
        "meta_inclination": 89.2499,
        "meta_ra_of_asc_node": 24.7065,
        "meta_arg_of_pericenter": 245.1537,
        "meta_mean_anomaly": 177.9997,
        "meta_ephemeris_type": 0,
        "meta_classification_type": "U",
        "meta_norad_cat_id": 2965,
        "meta_element_set_no": 999,
        "meta_rev_at_epoch": 87049,
        "meta_bstar": 0.00022948,
        "meta_mean_motion_dot": 1.66e-06,
        "meta_mean_motion_ddot": 0,
        "tle_line1": "1 02965U 67092A   25343.18935498  .00000166  00000+0  22948-3 0  9990",
        "tle_line2": "2 02965  89.2499  24.7065 0045987 245.1537 177.9997 13.53452129870491"
      },
      "geometry": {
        "type": "Point",
        "coordinates": [
          25.509733304727725,
          47.71957064341738
        ]
      }
    },
    {
      "type": "Feature",
      "properties": {
        "norad_id": 3133,
        "name": "OPS 7034 (TRANSIT 18)",
        "group": "nnss",
        "lat": -39.59440837370772,
        "lon": 93.6067016647027,
        "alt_km": 1031.5066507547517,
        "timestamp": "2025-12-09T11:33:55.068200+00:00",
        "meta_object_name": "OPS 7034 (TRANSIT 18)",
        "meta_object_id": "1968-012A",
        "meta_epoch": "2025-12-08T20:34:01.224768",
        "meta_mean_motion": 13.51564436,
        "meta_eccentricity": 0.00734771,
        "meta_inclination": 90.0276,
        "meta_ra_of_asc_node": 273.6278,
        "meta_arg_of_pericenter": 180.4121,
        "meta_mean_anomaly": 239.6766,
        "meta_ephemeris_type": 0,
        "meta_classification_type": "U",
        "meta_norad_cat_id": 3133,
        "meta_element_set_no": 999,
        "meta_rev_at_epoch": 56866,
        "meta_bstar": 0.00029762797,
        "meta_mean_motion_dot": 2.07e-06,
        "meta_mean_motion_ddot": 0,
        "tle_line1": "1 03133U 68012A   25342.85695862  .00000207  00000+0  29763-3 0  9990",
        "tle_line2": "2 03133  90.0276 273.6278 0073477 180.4121 239.6766 13.51564436568664"
      },
      "geometry": {
        "type": "Point",
        "coordinates": [
          93.6067016647027,
          -39.59440837370772
        ]
      }
    },
    {
      "type": "Feature",
      "properties": {
        "norad_id": 4507,
        "name": "NNSS 19 (TRANSIT 19)",
        "group": "nnss",
        "lat": -11.639061216990282,
        "lon": 54.530418957826484,
        "alt_km": 1116.2430497767045,
        "timestamp": "2025-12-09T11:33:55.068212+00:00",
        "meta_object_name": "NNSS 19 (TRANSIT 19)",
        "meta_object_id": "1970-067A",
        "meta_epoch": "2025-12-09T03:29:41.935200",
        "meta_mean_motion": 13.51313754,
        "meta_eccentricity": 0.0170767,
        "meta_inclination": 90.0057,
        "meta_ra_of_asc_node": 234.5314,
        "meta_arg_of_pericenter": 303.8805,
        "meta_mean_anomaly": 54.62,
        "meta_ephemeris_type": 0,
        "meta_classification_type": "U",
        "meta_norad_cat_id": 4507,
        "meta_element_set_no": 999,
        "meta_rev_at_epoch": 72173,
        "meta_bstar": 0.0002878,
        "meta_mean_motion_dot": 2.12e-06,
        "meta_mean_motion_ddot": 0,
        "tle_line1": "1 04507U 70067A   25343.14562425  .00000212  00000+0  28780-3 0  9994",
        "tle_line2": "2 04507  90.0057 234.5314 0170767 303.8805  54.6200 13.51313754721736"
      },
      "geometry": {
        "type": "Point",
        "coordinates": [
          54.530418957826484,
          -11.639061216990282
        ]
      }
    },
    {
      "type": "Feature",
      "properties": {
        "norad_id": 6909,
        "name": "NNSS 20 (TRANSIT 20)",
        "group": "nnss",
        "lat": 28.757826286065256,
        "lon": -104.81811223072188,
        "alt_km": 932.4928820486703,
        "timestamp": "2025-12-09T11:33:55.068224+00:00",
        "meta_object_name": "NNSS 20 (TRANSIT 20)",
        "meta_object_id": "1973-081A",
        "meta_epoch": "2025-12-09T04:25:21.173376",
        "meta_mean_motion": 13.7143159,
        "meta_eccentricity": 0.0156609,
        "meta_inclination": 89.8562,
        "meta_ra_of_asc_node": 255.1074,
        "meta_arg_of_pericenter": 88.8414,
        "meta_mean_anomaly": 273.0686,
        "meta_ephemeris_type": 0,
        "meta_classification_type": "U",
        "meta_norad_cat_id": 6909,
        "meta_element_set_no": 999,
        "meta_rev_at_epoch": 80312,
        "meta_bstar": 0.00032094,
        "meta_mean_motion_dot": 3.27e-06,
        "meta_mean_motion_ddot": 0,
        "tle_line1": "1 06909U 73081A   25343.18427284  .00000327  00000+0  32094-3 0  9998",
        "tle_line2": "2 06909  89.8562 255.1074 0156609  88.8414 273.0686 13.71431590803128"
      },
      "geometry": {
        "type": "Point",
        "coordinates": [
          -104.81811223072188,
          28.757826286065256
        ]
      }
    },
    {
      "type": "Feature",
      "properties": {
        "norad_id": 10457,
        "name": "TRANSAT",
        "group": "nnss",
        "lat": -46.3210639149748,
        "lon": -100.9189324512758,
        "alt_km": 1066.3589568434963,
        "timestamp": "2025-12-09T11:33:55.068235+00:00",
        "meta_object_name": "TRANSAT",
        "meta_object_id": "1977-106A",
        "meta_epoch": "2025-12-08T20:48:25.255872",
        "meta_mean_motion": 13.48942788,
        "meta_eccentricity": 0.00250257,
        "meta_inclination": 89.6481,
        "meta_ra_of_asc_node": 78.7341,
        "meta_arg_of_pericenter": 200.8662,
        "meta_mean_anomaly": 280.8023,
        "meta_ephemeris_type": 0,
        "meta_classification_type": "U",
        "meta_norad_cat_id": 10457,
        "meta_element_set_no": 999,
        "meta_rev_at_epoch": 36691,
        "meta_bstar": 0.00022884886,
        "meta_mean_motion_dot": 1.54e-06,
        "meta_mean_motion_ddot": 0,
        "tle_line1": "1 10457U 77106A   25342.86695898  .00000154  00000+0  22885-3 0  9990",
        "tle_line2": "2 10457  89.6481  78.7341 0025025 200.8662 280.8023 13.48942788366915"
      },
      "geometry": {
        "type": "Point",
        "coordinates": [
          -100.9189324512758,
          -46.3210639149748
        ]
      }
    },
    {
      "type": "Feature",
      "properties": {
        "norad_id": 12458,
        "name": "NOVA 1",
        "group": "nnss",
        "lat": 68.06979148145919,
        "lon": 91.79797994790096,
        "alt_km": 1157.0609476946865,
        "timestamp": "2025-12-09T11:33:55.068246+00:00",
        "meta_object_name": "NOVA 1",
        "meta_object_id": "1981-044A",
        "meta_epoch": "2025-12-08T21:17:39.460992",
        "meta_mean_motion": 13.23277871,
        "meta_eccentricity": 0.0015797,
        "meta_inclination": 89.8524,
        "meta_ra_of_asc_node": 91.4396,
        "meta_arg_of_pericenter": 113.4521,
        "meta_mean_anomaly": 3.7468,
        "meta_ephemeris_type": 0,
        "meta_classification_type": "U",
        "meta_norad_cat_id": 12458,
        "meta_element_set_no": 999,
        "meta_rev_at_epoch": 15135,
        "meta_bstar": 0.000247,
        "meta_mean_motion_dot": 1.14e-06,
        "meta_mean_motion_ddot": 0,
        "tle_line1": "1 12458U 81044A   25342.88726228  .00000114  00000+0  24700-3 0  9997",
        "tle_line2": "2 12458  89.8524  91.4396 0015797 113.4521   3.7468 13.23277871151350"
      },
      "geometry": {
        "type": "Point",
        "coordinates": [
          91.79797994790096,
          68.06979148145919
        ]
      }
    }
  ]
}